{
    "links": {
        "self": "http://www.neowsapp.com/rest/v1/neo/3748337?api_key=iIulBulltgU6a56xZRHN4H3l9WmuAYTsLGpBGhQ2"
    },
    "id": "3748337",
    "neo_reference_id": "3748337",
    "name": "(2016 FV7)",
    "designation": "2016 FV7",
    "nasa_jpl_url": "http://ssd.jpl.nasa.gov/sbdb.cgi?sstr=3748337",
    "absolute_magnitude_h": 23.1,
    "estimated_diameter": {
        "kilometers": {
            "estimated_diameter_min": 0.063760979,
            "estimated_diameter_max": 0.1425738833
        },
        "meters": {
            "estimated_diameter_min": 63.7609789875,
            "estimated_diameter_max": 142.5738833281
        },
        "miles": {
            "estimated_diameter_min": 0.0396192233,
            "estimated_diameter_max": 0.0885912765
        },
        "feet": {
            "estimated_diameter_min": 209.1895703015,
            "estimated_diameter_max": 467.7620993781
        }
    },
    "is_potentially_hazardous_asteroid": false,
    "close_approach_data": [
        {
            "close_approach_date": "2010-06-26",
            "close_approach_date_full": "2010-Jun-26 20:56",
            "epoch_date_close_approach": 1277585760000,
            "relative_velocity": {
                "kilometers_per_second": "40.6260049955",
                "kilometers_per_hour": "146253.6179837507",
                "miles_per_hour": "90876.3105744033"
            },
            "miss_distance": {
                "astronomical": "0.1087696414",
                "lunar": "42.3113905046",
                "kilometers": "16271706.674103818",
                "miles": "10110769.6846679684"
            },
            "orbiting_body": "Venus"
        },
        {
            "close_approach_date": "2014-12-29",
            "close_approach_date_full": "2014-Dec-29 12:48",
            "epoch_date_close_approach": 1419857280000,
            "relative_velocity": {
                "kilometers_per_second": "7.802285124",
                "kilometers_per_hour": "28088.2264465234",
                "miles_per_hour": "17452.9315939523"
            },
            "miss_distance": {
                "astronomical": "1.665020403",
                "lunar": "647.692936767",
                "kilometers": "249083505.79534161",
                "miles": "154773313.567309818"
            },
            "orbiting_body": "Juptr"
        },
        {
            "close_approach_date": "2016-04-02",
            "close_approach_date_full": "2016-Apr-02 08:25",
            "epoch_date_close_approach": 1459585500000,
            "relative_velocity": {
                "kilometers_per_second": "30.9569215496",
                "kilometers_per_hour": "111444.9175784686",
                "miles_per_hour": "69247.5378142434"
            },
            "miss_distance": {
                "astronomical": "0.0555968274",
                "lunar": "21.6271658586",
                "kilometers": "8317166.957797638",
                "miles": "5168047.9020098844"
            },
            "orbiting_body": "Earth"
        },
        {
            "close_approach_date": "2016-06-06",
            "close_approach_date_full": "2016-Jun-06 07:40",
            "epoch_date_close_approach": 1465198800000,
            "relative_velocity": {
                "kilometers_per_second": "39.7358555259",
                "kilometers_per_hour": "143049.0798930982",
                "miles_per_hour": "88885.1352257976"
            },
            "miss_distance": {
                "astronomical": "0.1347529725",
                "lunar": "52.4189063025",
                "kilometers": "20158757.662168575",
                "miles": "12526071.169633335"
            },
            "orbiting_body": "Venus"
        }
    ],
    "orbital_data": {
        "orbit_id": "7",
        "orbit_determination_date": "2020-09-11 07:36:25",
        "first_observation_date": "2016-03-10",
        "last_observation_date": "2016-04-03",
        "data_arc_in_days": 24,
        "observations_used": 80,
        "orbit_uncertainty": "7",
        "minimum_orbit_intersection": ".0104988",
        "jupiter_tisserand_invariant": "3.149",
        "epoch_osculation": "2459000.5",
        "eccentricity": ".877020402881475",
        "semi_major_axis": "2.03495057071723",
        "inclination": "10.14337011803191",
        "ascending_node_longitude": "13.76784268657899",
        "orbital_period": "1060.301128846295",
        "perihelion_distance": ".2502574013429175",
        "perihelion_argument": "303.720555742033",
        "aphelion_distance": "3.819643740091542",
        "perihelion_time": "2458581.560122699579",
        "mean_anomaly": "142.2410593792875",
        "mean_motion": ".3395261876139971",
        "equinox": "J2000",
        "orbit_class": {
            "orbit_class_type": "APO",
            "orbit_class_description": "Near-Earth asteroid orbits which cross the Earth’s orbit similar to that of 1862 Apollo",
            "orbit_class_range": "a (semi-major axis) > 1.0 AU; q (perihelion) < 1.017 AU"
        }
    },
    "is_sentry_object": false
}